55173,ONEWEB-0710,2023,109.29,-1.0,+,87.93,Active,0,LEO,USA,UK,Unknown,Unknown,Unknown,1 55173U 23004AK  24058.59017291  .00000109  00000+0  24759-3 0  9992,2 55173  87.9258 173.0966 0001582 111.8317 248.2983 13.17648830 56886,13.1764883,0.0001582,LEO
55174,ONEWEB-0711,2023,109.8,-1.0,+,87.9,Active,0,LEO,USA,UK,Unknown,Unknown,Unknown,1 55174U 23004AL  24058.61399608 -.00000490  00000+0 -14174-2 0  9995,2 55174  87.9018 188.1839 0002283 130.7690 229.3636 13.11414647 55661,13.11414647,0.0002283,LEO
55175,ONEWEB-0713,2023,109.8,-1.0,+,87.9,Active,0,LEO,USA,UK,Unknown,Unknown,Unknown,1 55175U 23004AM  24058.63185928  .00000007  00000+0 -14944-4 0  9996,2 55175  87.9023 188.1883 0001933 116.8840 243.2486 13.11420030 55650,13.1142003,0.0001933,LEO
55176,ONEWEB-0715,2023,109.8,-1.0,+,87.9,Active,0,LEO,USA,UK,Unknown,Unknown,Unknown,1 55176U 23004AN  24058.62698635 -.00000289  00000+0 -84982-3 0  9991,2 55176  87.9022 188.1894 0001895 110.6888 249.4443 13.11419760 55696,13.1141976,0.0001895,LEO
55177,ONEWEB-0716,2023,109.29,-1.0,+,87.93,Active,0,LEO,USA,UK,Unknown,Unknown,Unknown,1 55177U 23004AP  24058.58384815  .00000109  00000+0  24821-3 0  9994,2 55177  87.9261 173.0871 0001922  98.7271 261.4078 13.17649329 56885,13.17649329,0.0001922,LEO
55178,ONEWEB-0717,2023,109.29,-1.0,+,87.93,Active,0,LEO,USA,UK,Unknown,Unknown,Unknown,1 55178U 23004AQ  24058.56644596  .00000048  00000+0  90741-4 0  9995,2 55178  87.9260 173.0570 0001924 139.5781 220.5494 13.17650408 56937,13.17650408,0.0001924,LEO
55179,ONEWEB-0719,2023,109.29,-1.0,+,87.93,Active,0,LEO,USA,UK,Unknown,Unknown,Unknown,1 55179U 23004AR  24058.57751735  .00000096  00000+0  21482-3 0  9999,2 55179  87.9257 173.0412 0002125 108.0369 252.0994 13.17648507 56882,13.17648507,0.0002125,LEO
55796,ONEWEB-0530,2023,109.03,-1.0,+,87.91,Active,0,LEO,USA,UK,Unknown,Unknown,Unknown,1 55796U 23029A   24058.56886625  .00000098  00000+0  21024-3 0  9991,2 55796  87.9128  81.7776 0002181 109.3239 250.8130 13.20771118 50188,13.20771118,0.0002181,LEO
